QIANFAN-33              
1 61566U 24185Q   25246.23220588  .00000601  00000+0  42599-3 0  9991
2 61566  88.9741  90.0282 0004855 286.2695  73.7948 13.96426399 55138
QIANFAN-34              
1 61567U 24185R   25246.25278367  .00000577  00000+0  36864-3 0  9992
2 61567  88.9719  89.7224 0003912 296.4637  63.6142 14.02178646 55273
QIANFAN-35              
1 61568U 24185S   25246.20129157  .00001459  00000+0  58610-3 0  9993
2 61568  88.9744  88.6947 0004479 252.2333 107.8373 14.27703551 55839
QIANFAN-36              
1 61569U 24185T   25246.20705817  .00000172  00000+0  23017-3 0  9991
2 61569  88.9729  91.5313 0005705 353.2921   6.8155 13.55550239 54301
QIANFAN-37              
1 62238U 24232B   25246.26442319  .00000097  00000+0  13131-3 0  9991
2 62238  88.9943  51.4715 0002314  78.4629 281.6782 13.50961565 85607
QIANFAN-38              
1 62239U 24232C   25246.21523765  .00000082  00000+0  10847-3 0  9997
2 62239  88.9950  51.3855 0016248 122.2840 237.9888 13.50965572 85652
QIANFAN-39              
1 62240U 24232D   25246.24093050  .00000333  00000+0  13509-3 0  9998
2 62240  88.9951  48.7987 0017873  53.2415 307.0416 14.25239909 87072
QIANFAN-40              
1 62241U 24232E   25246.24814545  .00000067  00000+0  85102-4 0  9992
2 62241  88.9978  50.9383 0015147 129.0522 231.1979 13.50962044 86025
